H1 CPF 01  gfz 2022 03 08 13  5672 tandemx   
H2 1003001  6202 36605    2022 03 08 12 59 42 2022 03 13 00 00 42   120 1 1  0 0 0
H9
10 0 59648  56142.000000  0   -1953633.520  -2438284.636   6128579.726
10 0 59648  56262.000000  0   -2650791.329  -2838351.084   5679041.116
10 0 59648  56382.000000  0   -3308118.017  -3176992.393   5129612.938
10 0 59648  56502.000000  0   -3912991.827  -3449081.317   4489926.088
10 0 59648  56622.000000  0   -4453623.880  -3650864.613   3771208.536
10 0 59648  56742.000000  0   -4919292.965  -3780015.748   2986091.243
10 0 59648  56862.000000  0   -5300564.214  -3835659.460   2148387.770
10 0 59648  56982.000000  0   -5589486.756  -3818367.393   1272848.523
10 0 59648  57102.000000  0   -5779763.228  -3730122.841    374895.008
10 0 59648  57222.000000  0   -5866887.749  -3574256.206   -529659.307
10 0 59648  57342.000000  0   -5848248.669  -3355353.136  -1424896.712
10 0 59648  57462.000000  0   -5723191.899  -3079136.348  -2295085.472
10 0 59648  57582.000000  0   -5493043.539  -2752325.131  -3124962.950
10 0 59648  57702.000000  0   -5161093.570  -2382477.425  -3900007.181
10 0 59648  57822.000000  0   -4732540.845  -1977817.827  -4606691.225
10 0 59648  57942.000000  0   -4214401.887  -1547056.725  -5232716.081
10 0 59648  58062.000000  0   -3615385.680  -1099204.192  -5767218.478
10 0 59648  58182.000000  0   -2945738.090   -643383.031  -6200949.460
10 0 59648  58302.000000  0   -2217060.444   -188645.493  -6526422.938
10 0 59648  58422.000000  0   -1442105.033    256202.652  -6738033.247
10 0 59648  58542.000000  0    -634552.606    682767.416  -6832140.414
10 0 59648  58662.000000  0     191224.365   1083220.658  -6807125.771
10 0 59648  58782.000000  0    1020410.325   1450439.323  -6663416.589
10 0 59648  58902.000000  0    1838006.190   1778129.091  -6403482.278
10 0 59648  59022.000000  0    2629095.388   2060931.350  -6031796.434
10 0 59648  59142.000000  0    3379112.109   2294510.403  -5554767.428
10 0 59648  59262.000000  0    4074106.460   2475620.109  -4980638.207
10 0 59648  59382.000000  0    4701005.637   2602149.812  -4319356.291
10 0 59648  59502.000000  0    5247865.122   2673147.670  -3582411.522
10 0 59648  59622.000000  0    5704102.874   2688820.548  -2782644.773
10 0 59648  59742.000000  0    6060714.079   2650510.853  -1934031.061
10 0 59648  59862.000000  0    6310459.534   2560649.333  -1051435.912
10 0 59648  59982.000000  0    6448021.248   2422684.635   -150353.038
10 0 59648  60102.000000  0    6470122.226   2240991.039    753374.100
10 0 59648  60222.000000  0    6375604.109   2020755.873   1643837.620
10 0 59648  60342.000000  0    6165465.937   1767851.998   2505353.188
10 0 59648  60462.000000  0    5842857.530   1488695.154   3322746.117
10 0 59648  60582.000000  0    5413029.226   1190091.648   4081626.047
10 0 59648  60702.000000  0    4883238.462    879080.031   4768645.130
10 0 59648  60822.000000  0    4262618.837    562771.700   5371733.536
10 0 59648  60942.000000  0    3562013.169    248192.692   5880311.351
10 0 59648  61062.000000  0    2793773.670    -57868.591   6285469.681
10 0 59648  61182.000000  0    1971537.789   -349003.471   6580119.919
10 0 59648  61302.000000  0    1109982.319   -619314.033   6759112.753
10 0 59648  61422.000000  0     224557.996   -863530.929   6819323.769
10 0 59648  61542.000000  0    -668788.767  -1077114.808   6759703.395
10 0 59648  61662.000000  0   -1553902.382  -1256340.615   6581293.262
10 0 59648  61782.000000  0   -2414708.876  -1398362.491   6287208.077
10 0 59648  61902.000000  0   -3235505.819  -1501258.153   5882585.098
10 0 59648  62022.000000  0   -4001250.983  -1564053.741   5374502.352
10 0 59648  62142.000000  0   -4697843.450  -1586728.949   4771860.736
10 0 59648  62262.000000  0   -5312390.333  -1570200.703   4085232.870
10 0 59648  62382.000000  0   -5833453.203  -1516285.505   3326680.296
10 0 59648  62502.000000  0   -6251269.051  -1427641.458   2509543.588
10 0 59648  62622.000000  0   -6557943.532  -1307692.176   1648208.209
10 0 59648  62742.000000  0   -6747610.176  -1160533.348    757845.849
10 0 59648  62862.000000  0   -6816547.759   -990823.653   -145860.643
10 0 59648  62982.000000  0   -6763255.075   -803663.352  -1047002.275
10 0 59648  63102.000000  0   -6588480.600   -604463.735  -1929733.151
10 0 59648  63222.000000  0   -6295206.746   -398810.960  -2778555.978
10 0 59648  63342.000000  0   -5888591.407   -192328.596  -3578600.089
10 0 59648  63462.000000  0   -5375864.957      9459.729  -4315885.484
10 0 59648  63582.000000  0   -4766187.886    201262.873  -4977565.167
10 0 59648  63702.000000  0   -4070474.696    378146.962  -5552143.524
10 0 59648  63822.000000  0   -3301187.269    535648.958  -6029667.611
10 0 59648  63942.000000  0   -2472103.336    669876.810  -6401887.591
10 0 59648  64062.000000  0   -1598066.971    777595.104  -6662387.189
10 0 59648  64182.000000  0    -694722.817    856294.863  -6806683.930
10 0 59648  64302.000000  0     221759.704    904246.436  -6832296.341
10 0 59648  64422.000000  0    1134967.448    920534.214  -6738782.186
10 0 59648  64542.000000  0    2028530.880    905073.357  -6527747.952
10 0 59648  64662.000000  0    2886411.756    858608.472  -6202824.121
10 0 59648  64782.000000  0    3693186.500    782694.039  -5769608.741
10 0 59648  64902.000000  0    4434320.470    679656.095  -5235580.313
10 0 59648  65022.000000  0    5096431.232    552536.428  -4609980.689
10 0 59648  65142.000000  0    5667536.409    405020.272  -3903666.264
10 0 59648  65262.000000  0    6137279.104    241347.775  -3128928.829
10 0 59648  65382.000000  0    6497126.926     66211.651  -2299289.395
10 0 59648  65502.000000  0    6740540.870   -115357.511  -1429265.824
10 0 59648  65622.000000  0    6863106.354   -298115.350   -534117.412
10 0 59648  65742.000000  0    6862623.430   -476733.913    370426.458
10 0 59648  65862.000000  0    6739154.400   -645935.720   1268449.380
10 0 59648  65982.000000  0    6495025.642   -800627.625   2144136.463
10 0 59648  66102.000000  0    6134783.844   -936030.966   2982062.866
10 0 59648  66222.000000  0    5665105.432  -1047804.518   3767473.366
10 0 59648  66342.000000  0    5094666.070  -1132157.102   4486547.235
10 0 59648  66462.000000  0    4433970.825  -1185948.169   5126644.862
10 0 59648  66582.000000  0    3695150.321  -1206771.575   5676529.434
10 0 59648  66702.000000  0    2891728.799  -1193022.230   6126561.492
10 0 59648  66822.000000  0    2038368.780  -1143944.989   6468862.610
10 0 59648  66942.000000  0    1150598.747  -1059664.359   6697448.051
10 0 59648  67062.000000  0     244526.427   -941194.068   6808326.074
10 0 59648  67182.000000  0    -663454.765   -790426.305   6799562.076
10 0 59648  67302.000000  0   -1556961.307   -610101.708   6671309.238
10 0 59648  67422.000000  0   -2419913.734   -403759.680   6425805.801
10 0 59648  67542.000000  0   -3236824.861   -175670.033   6067339.116
10 0 59648  67662.000000  0   -3993079.217     69253.016   5602176.520
10 0 59648  67782.000000  0   -4675199.046    325553.075   5038461.955
10 0 59648  67902.000000  0   -5271091.114    587348.066   4386079.013
10 0 59648  68022.000000  0   -5770269.767    848459.235   3656481.844
10 0 59648  68142.000000  0   -6164050.180   1102550.019   2862496.499
10 0 59648  68262.000000  0   -6445709.269   1343271.728   2018095.804
10 0 59648  68382.000000  0   -6610609.295   1564412.131   1138150.621
10 0 59648  68502.000000  0   -6656281.432   1760044.048    238161.867
10 0 59648  68622.000000  0   -6582464.580   1924669.692   -666021.465
10 0 59648  68742.000000  0   -6391099.052   2053356.309  -1558490.395
10 0 59648  68862.000000  0   -6086276.750   2141860.649  -2423563.842
10 0 59648  68982.000000  0   -5674148.440   2186739.395  -3246071.873
10 0 59648  69102.000000  0   -5162789.425   2185441.620  -4011626.414
10 0 59648  69222.000000  0   -4562029.503   2136381.174  -4706872.772
10 0 59648  69342.000000  0   -3883252.456   2038988.366  -5319718.241
10 0 59648  69462.000000  0   -3139170.820   1893740.260  -5839533.963
10 0 59648  69582.000000  0   -2343582.047   1702169.359  -6257329.155
10 0 59648  69702.000000  0   -1511108.727   1466850.473  -6565896.139
10 0 59648  69822.000000  0    -656929.424   1191366.193  -6759922.063
10 0 59648  69942.000000  0     203493.730    880252.079  -6836070.035
10 0 59648  70062.000000  0    1054687.301    538923.410  -6793030.283
10 0 59648  70182.000000  0    1881438.843    173582.887  -6631542.451
10 0 59648  70302.000000  0    2669062.927   -208889.385  -6354383.328
10 0 59648  70422.000000  0    3403657.193   -601061.254  -5966324.842
10 0 59648  70542.000000  0    4072345.237   -995088.318  -5474059.282
10 0 59648  70662.000000  0    4663502.546  -1382865.705  -4886095.651
10 0 59648  70782.000000  0    5166964.094  -1756191.137  -4212624.523
10 0 59648  70902.000000  0    5574207.128  -2106934.661  -3465351.858
10 0 59648  71022.000000  0    5878505.934  -2427212.077  -2657303.810
10 0 59648  71142.000000  0    6075054.169  -2709558.513  -1802604.211
10 0 59648  71262.000000  0    6161050.745  -2947097.627   -916228.765
10 0 59648  71382.000000  0    6135747.615  -3133702.418    -13740.525
10 0 59648  71502.000000  0    6000456.755  -3264143.492    888988.836
10 0 59648  71622.000000  0    5758516.800  -3334220.984   1776066.144
10 0 59648  71742.000000  0    5415216.542  -3340875.484   2631866.944
10 0 59648  71862.000000  0    4977678.994  -3282275.630   3441318.514
10 0 59648  71982.000000  0    4454709.918  -3157879.323   4190172.070
10 0 59648  72102.000000  0    3856615.703  -2968468.550   4865256.989
10 0 59648  72222.000000  0    3194992.826  -2716157.507   5454715.090
10 0 59648  72342.000000  0    2482494.867  -2404371.628   5948206.784
10 0 59648  72462.000000  0    1732584.568  -2037800.306   6337088.096
10 0 59648  72582.000000  0     959274.939  -1622324.577   6614556.479
99
